CALSPHERE 1             
1 00900U 64063C   15080.15447369  .00000736  00000-0  79415-3 0  9996
2 00900  90.1456 359.2997 0029316  54.2080 306.1802 13.72342747507642
CALSPHERE 2             
1 00902U 64063E   15080.29032252  .00000067  00000-0  87989-4 0  9997
2 00902  90.1507   1.6443 0016140 265.5631 214.6773 13.52605297301647
LCS 1                   
1 01361U 65034C   15079.45715166  .00000009  00000-0  71307-4 0  9997
2 01361  32.1385 207.7325 0012450   2.6650 357.3913  9.89288276803531
TEMPSAT 1               
1 01512U 65065E   15079.06241038  .00000042  00000-0  66461-4 0  9990
2 01512  89.7912 257.6021 0067981 260.3047 223.1036 13.33370371412705
CALSPHERE 4(A)          
1 01520U 65065H   15079.49699198  .00000096  00000-0  16928-3 0  9991
2 01520  90.1100 114.8164 0069989 161.6873 331.9201 13.35637736414832
OPS 5712 (P/L 160)      
1 02826U 67053A   15080.79277299  .00001024  00000-0  30561-3 0  9990
2 02826  69.9315 351.3490 0003752 132.8838 227.2609 14.45780635470280
OPS 5712 (P/L 153)      
1 02874U 67053H   15080.81091515  .00000040  00000-0  67926-4 0  9994
2 02874  69.9720 268.9385 0005512 141.0999 350.5840 13.96209210434136
SURCAL 150B             
1 02909U 67053J   15080.80081999  .00003397  00000-0  76882-3 0  9995
2 02909  69.9493  99.1477 0007180 238.9055 121.1378 14.56993339477886
RIGIDSPHERE 2 (LCS 4)   
1 05398U 71067E   15080.51277146  .00000713  00000-0  24726-3 0  9998
2 05398  87.6250  31.8648 0066288 102.8160 258.0454 14.33067720285526
